     2.11           N: GPS NAV DATA                         RINEX VERSION / TYPE
teqc  2018Dec12     gpsops              20220515 01:04:04UTCPGM / RUN BY / DATE
Linux 2.6.32-573.12.1.x86_64|x86_64|gcc -static|Linux 64|=+ COMMENT
CHPI                                    MARKER NAME         COMMENT
41609M003                               MARKER NUMBER       COMMENT
4164613.9484 -4162456.9866 -2445028.7316                    COMMENT
This data is provided as a public service by NASA/JPL.      COMMENT
No warranty is expressed or implied regarding suitability   COMMENT
for use.  For further information, contact:                 COMMENT
ggnops at jpl dot nasa dot gov                              COMMENT
                                                            END OF HEADER
15 22  5 14  6  0  0.0-6.139837205410D-05 2.955857780762D-12 0.000000000000D+00
    4.900000000000D+01-4.790625000000D+01 5.752025309228D-09 2.207483930086D+00
   -2.706423401833D-06 1.404006313533D-02 5.014240741730D-06 5.153778831482D+03
    5.400000000000D+05-2.793967723846D-08-1.462176820139D+00-2.924352884293D-07
    9.298140392869D-01 2.672500000000D+02 1.091670529008D+00-8.507140070817D-09
   -3.067984936744D-10 1.000000000000D+00 2.209000000000D+03 0.000000000000D+00
    2.000000000000D+00 0.000000000000D+00-1.071020960808D-08 4.900000000000D+01
    5.328180000000D+05 4.000000000000D+00
26 22  5 14  6  0  0.0 2.054860815406D-04 2.614797267597D-12 0.000000000000D+00
    2.300000000000D+01 1.222812500000D+02 5.138785479613D-09-1.269512387487D+00
    6.351619958878D-06 6.938688340597D-03 4.781410098076D-06 5.153748868942D+03
    5.400000000000D+05 1.639127731323D-07 7.043764453863D-01-1.769512891769D-07
    9.379036588120D-01 2.769375000000D+02 3.892122325489D-01-8.587857718745D-09
    2.857261873569D-10 1.000000000000D+00 2.209000000000D+03 0.000000000000D+00
    2.000000000000D+00 0.000000000000D+00 6.984919309616D-09 2.300000000000D+01
    5.342460000000D+05 4.000000000000D+00
10 22  5 14  6  0  0.0-4.138052463531D-04-1.443822839065D-11 0.000000000000D+00
    1.900000000000D+01 4.375000000000D+01 4.597691512306D-09-1.050600970616D+00
    2.413988113403D-06 7.594716153108D-03 6.923452019691D-06 5.153674402237D+03
    5.400000000000D+05 1.732259988785D-07-2.384544492295D+00 5.774199962616D-08
    9.734689396545D-01 2.500000000000D+02-2.494487736467D+00-8.108194881720D-09
    6.989576858217D-10 1.000000000000D+00 2.209000000000D+03 0.000000000000D+00
    2.000000000000D+00 0.000000000000D+00 2.328306436539D-09 1.900000000000D+01
    5.361180000000D+05 4.000000000000D+00
13 22  5 14  6  0  0.0 3.112480044365D-04 6.821210263297D-12 0.000000000000D+00
    2.700000000000D+01-4.925000000000D+01 4.694124100539D-09 2.737090991672D+00
   -2.643093466759D-06 5.905705736950D-03 7.389113306999D-06 5.153672025681D+03
    5.400000000000D+05-7.450580596924D-08-1.199435925572D+00-9.126961231232D-08
    9.683173994493D-01 2.410000000000D+02 9.200079019077D-01-8.002476192397D-09
   -5.160929259133D-10 1.000000000000D+00 2.209000000000D+03 0.000000000000D+00
    2.000000000000D+00 0.000000000000D+00-1.164153218269D-08 2.700000000000D+01
    5.381520000000D+05 4.000000000000D+00
16 22  5 14  5 59 44.0-5.006906576455D-04-3.296918293927D-12 0.000000000000D+00
    2.400000000000D+01 1.034375000000D+02 4.502687555010D-09-2.161722341372D+00
    5.327165126801D-06 1.274223241489D-02 3.539025783539D-06 5.153647966385D+03
    5.399840000000D+05 6.332993507385D-08 8.493729856456D-01-1.471489667892D-07
    9.693795013815D-01 3.170312500000D+02 7.281937933144D-01-8.194984211129D-09
    3.957307694893D-10 1.000000000000D+00 2.209000000000D+03 0.000000000000D+00
    2.000000000000D+00 0.000000000000D+00-1.024454832077D-08 2.400000000000D+01
    5.389380000000D+05 4.000000000000D+00
23 22  5 14  8  0  0.0-2.175755798817D-05-2.501110429876D-12 0.000000000000D+00
    1.810000000000D+02 4.606250000000D+01 4.608406244332D-09 1.281229413331D+00
    2.296641469002D-06 2.136719296686D-03 7.126480340958D-06 5.153704225540D+03
    5.472000000000D+05 7.450580596924D-09-2.409902003303D+00 7.078051567078D-08
    9.685694602343D-01 2.479375000000D+02 3.003497642955D+00-8.091051310478D-09
    6.410981328820D-10 1.000000000000D+00 2.209000000000D+03 0.000000000000D+00
    2.000000000000D+00 0.000000000000D+00-8.381903171539D-09 9.490000000000D+02
    5.400180000000D+05 4.000000000000D+00
18 22  5 14  8  0  0.0 1.705521717668D-04-1.011812855722D-11 0.000000000000D+00
    1.450000000000D+02-5.078125000000D+01 3.871232680951D-09 2.363567505148D+00
   -2.643093466759D-06 2.304422785528D-03 1.234747469425D-05 5.153608331680D+03
    5.472000000000D+05-2.421438694000D-08 2.874286724619D+00-1.676380634308D-08
    9.717904752254D-01 1.464062500000D+02 3.036001754551D+00-7.670319499595D-09
    1.057186893220D-10 1.000000000000D+00 2.209000000000D+03 0.000000000000D+00
    2.000000000000D+00 0.000000000000D+00-8.381903171539D-09 6.570000000000D+02
    5.400180000000D+05 4.000000000000D+00
29 22  5 14  8  0  0.0-5.134530365467D-04-3.979039320257D-12 0.000000000000D+00
    5.200000000000D+01-8.928125000000D+01 4.204103689222D-09-1.921036115962D+00
   -4.684552550316D-06 2.148858853616D-03 4.187226295471D-06 5.153706930161D+03
    5.472000000000D+05-5.587935447693D-08 1.882418329274D+00 3.352761268616D-08
    9.807084940567D-01 3.086875000000D+02 2.255107240051D+00-8.163554330520D-09
   -4.218032840856D-10 1.000000000000D+00 2.209000000000D+03 0.000000000000D+00
    2.000000000000D+00 0.000000000000D+00-1.024454832077D-08 5.200000000000D+01
    5.400180000000D+05 4.000000000000D+00
25 22  5 14  8  0  0.0 3.244928084314D-04 4.774847184308D-12 0.000000000000D+00
    7.400000000000D+01 1.080937500000D+02 4.859488131472D-09 4.486376750800D-01
    5.761161446571D-06 1.052097009961D-02 4.634261131287D-06 5.153675386429D+03
    5.472000000000D+05-9.872019290924D-08 7.529507106194D-01 1.303851604462D-07
    9.570358345782D-01 2.868750000000D+02 1.002776709835D+00-8.602501185847D-09
    1.492919328940D-10 1.000000000000D+00 2.209000000000D+03 0.000000000000D+00
    2.000000000000D+00 0.000000000000D+00 5.587935447693D-09 7.400000000000D+01
    5.400180000000D+05 4.000000000000D+00
26 22  5 14  8  0  0.0 2.055047079921D-04 2.614797267597D-12 0.000000000000D+00
    2.400000000000D+01 1.172500000000D+02 5.285577308368D-09-2.192868075014D-01
    6.020069122314D-06 6.939122918993D-03 4.446133971214D-06 5.153750234604D+03
    5.472000000000D+05 9.499490261078D-08 7.043143840126D-01 2.607703208923D-08
    9.379046155605D-01 2.795625000000D+02 3.891256380390D-01-8.788580365363D-09
    2.171519023912D-10 1.000000000000D+00 2.209000000000D+03 0.000000000000D+00
    2.000000000000D+00 0.000000000000D+00 6.984919309616D-09 2.400000000000D+01
    5.400180000000D+05 4.000000000000D+00
10 22  5 14  8  0  0.0-4.139086231589D-04-1.443822839065D-11 0.000000000000D+00
    5.500000000000D+01 4.293750000000D+01 4.550546691392D-09-3.843510040478D-04
    2.333894371986D-06 7.594991591759D-03 7.070600986481D-06 5.153675123215D+03
    5.472000000000D+05 7.636845111847D-08-2.384603167013D+00 1.359730958939D-07
    9.734735990485D-01 2.529062500000D+02-2.494523822267D+00-8.176412008951D-09
    6.807426413777D-10 1.000000000000D+00 2.209000000000D+03 0.000000000000D+00
    2.000000000000D+00 0.000000000000D+00 2.328306436539D-09 5.500000000000D+01
    5.400180000000D+05 4.000000000000D+00
15 22  5 14  8  0  0.0-6.137695163488D-05 2.955857780762D-12 0.000000000000D+00
    1.000000000000D+02-4.615625000000D+01 5.758096990709D-09-3.025597975637D+00
   -2.635642886162D-06 1.403983775526D-02 4.764646291733D-06 5.153779441833D+03
    5.472000000000D+05 1.676380634308D-07-1.462238331456D+00-2.700835466385D-07
    9.298118800198D-01 2.705625000000D+02 1.091692399633D+00-8.534641216350D-09
   -2.346526313668D-10 1.000000000000D+00 2.209000000000D+03 0.000000000000D+00
    2.000000000000D+00 0.000000000000D+00-1.071020960808D-08 1.000000000000D+02
    5.400180000000D+05 4.000000000000D+00
31 22  5 14  8  0  0.0-1.775464043021D-04-1.591615728103D-12 0.000000000000D+00
    9.000000000000D+01 4.812500000000D+01 4.513402287036D-09 8.959433354533D-01
    2.793967723846D-06 1.043176604435D-02 1.284480094910D-05 5.153743747711D+03
    5.472000000000D+05 3.725290298462D-09-2.635443291763D-01 1.378357410431D-07
    9.553797001307D-01 1.278125000000D+02 3.896417994249D-01-8.015333870829D-09
   -3.753727786401D-10 1.000000000000D+00 2.209000000000D+03 0.000000000000D+00
    2.000000000000D+00 0.000000000000D+00-1.350417733192D-08 9.000000000000D+01
    5.400180000000D+05 4.000000000000D+00
 5 22  5 14  8  0  0.0-8.178548887372D-05-1.364242052659D-12 0.000000000000D+00
    7.500000000000D+01 4.456250000000D+01 4.662694219930D-09-1.595070163680D+00
    2.447515726089D-06 5.961180548184D-03 6.925314664841D-06 5.153716737747D+03
    5.472000000000D+05 5.774199962616D-08-2.423412647173D+00 2.421438694000D-08
    9.607055280071D-01 2.383437500000D+02 1.020215711531D+00-8.129267188037D-09
    7.211014653419D-10 1.000000000000D+00 2.209000000000D+03 0.000000000000D+00
    2.000000000000D+00 0.000000000000D+00-1.117587089539D-08 7.500000000000D+01
    5.400180000000D+05 4.000000000000D+00
13 22  5 14  8  0  0.0 3.112968988717D-04 6.821210263297D-12 0.000000000000D+00
    3.700000000000D+01-5.790625000000D+01 4.763055543239D-09-2.495952412974D+00
   -3.142282366753D-06 5.907152779400D-03 7.031485438347D-06 5.153669279099D+03
    5.472000000000D+05 8.568167686462D-08-1.199494480331D+00-9.126961231232D-08
    9.683138328550D-01 2.470937500000D+02 9.200505664505D-01-8.078550789781D-09
   -4.068026592493D-10 1.000000000000D+00 2.209000000000D+03 0.000000000000D+00
    2.000000000000D+00 0.000000000000D+00-1.164153218269D-08 3.700000000000D+01
    5.400180000000D+05 4.000000000000D+00
